[{"OBJECT_NAME":"PROBA-1","OBJECT_ID":"2001-049B","EPOCH":"2026-03-09T22:57:25.772256","MEAN_MOTION":15.07031721,"ECCENTRICITY":0.00568356,"INCLINATION":97.9638,"RA_OF_ASC_NODE":74.0417,"ARG_OF_PERICENTER":98.1776,"MEAN_ANOMALY":262.5903,"EPHEMERIS_TYPE":0,"CLASSIFICATION_TYPE":"U","NORAD_CAT_ID":26958,"ELEMENT_SET_NO":999,"REV_AT_EPOCH":32867,"BSTAR":0.00028513173,"MEAN_MOTION_DOT":4.362e-5,"MEAN_MOTION_DDOT":0},{"OBJECT_NAME":"STARLINK-4810","OBJECT_ID":"2022-114BD","EPOCH":"2026-03-09T22:25:03.479520","MEAN_MOTION":15.08860246,"ECCENTRICITY":0.00012576,"INCLINATION":53.2176,"RA_OF_ASC_NODE":272.6922,"ARG_OF_PERICENTER":107.6981,"MEAN_ANOMALY":252.4148,"EPHEMERIS_TYPE":0,"CLASSIFICATION_TYPE":"U","NORAD_CAT_ID":53869,"ELEMENT_SET_NO":999,"REV_AT_EPOCH":19329,"BSTAR":-0.00021048966,"MEAN_MOTION_DOT":-3.638e-5,"MEAN_MOTION_DDOT":0}]
